{
	"creator": "Satellites plugin version 0.9.3 (updated)",
	"hintColor": [0.4, 0.4, 0.4],
	"satellites": 
	{
		"24949": 
		{
			"comms": [],
			"groups": ["communications", "iridium"],
			"hintColor": [0.21, 0, 0.71],
			"lastUpdated": "2015-03-28T16:14:56",
			"name": "IRIDIUM 30",
			"orbitVisible": false,
			"stdMag": 5.5,
			"tle1": "1 24949U 97051F   15086.96911213  .00000261  00000-0  86303-4 0  9995",
			"tle2": "2 24949  86.3920 266.6749 0002120  96.3175 263.8263 14.34219151917989",
			"visible": true
		},
		"24950": 
		{
			"comms": [],
			"groups": ["communications", "iridium"],
			"hintColor": [0.21, 0, 0.71],
			"lastUpdated": "2015-03-28T16:14:56",
			"name": "IRIDIUM 31",
			"orbitVisible": false,
			"stdMag": 5.5,
			"tle1": "1 24950U 97051G   15086.96277438  .00000262  00000-0  86627-4 0  9991",
			"tle2": "2 24950  86.3919 266.6792 0001845  92.0194 268.1213 14.34218126917999",
			"visible": true
		},
		"24957": 
		{
			"comms": [],
			"groups": ["geostationary"],
			"lastUpdated": "2015-03-28T16:14:56",
			"name": "NSS-5",
			"orbitVisible": false,
			"tle1": "1 24957U 97053A   15087.04940735  .00000085  00000-0  00000+0 0  9996",
			"tle2": "2 24957   2.2523  73.6377 0003178 275.0835 264.6564  1.00270640 64132",
			"visible": false
		},
		"24965": 
		{
			"comms": [],
			"groups": ["communications", "iridium"],
			"hintColor": [0.21, 0, 0.71],
			"lastUpdated": "2015-03-28T16:14:56",
			"name": "IRIDIUM 19",
			"orbitVisible": false,
			"stdMag": 6,
			"tle1": "1 24965U 97056A   15086.52855723  .00000180  00000-0  57208-4 0  9995",
			"tle2": "2 24965  86.3932 298.3844 0002036  89.3949 270.7480 14.34221428916072",
			"visible": true
		},
		"24966": 
		{
			"comms": [],
			"groups": ["communications", "iridium"],
			"hintColor": [0.21, 0, 0.71],
			"lastUpdated": "2015-03-28T16:14:56",
			"name": "IRIDIUM 35",
			"orbitVisible": false,
			"stdMag": 5,
			"tle1": "1 24966U 97056B   15086.95985672  .00000195  00000-0  62737-4 0  9999",
			"tle2": "2 24966  86.3932 298.2051 0002044  89.1697 270.9733 14.34218896916112",
			"visible": true
		},
		"24967": 
		{
			"comms": [],
			"groups": ["communications", "iridium"],
			"hintColor": [0.21, 0, 0.71],
			"lastUpdated": "2015-03-28T16:14:56",
			"name": "IRIDIUM 36",
			"orbitVisible": false,
			"stdMag": 5.5,
			"tle1": "1 24967U 97056C   15087.02036637  .00000378  00000-0  12511-3 0  9994",
			"tle2": "2 24967  86.3944 297.8401 0001965  86.2652  78.7271 14.35341833916356",
			"visible": true
		},
		"24968": 
		{
			"comms": [],
			"groups": ["communications", "iridium"],
			"hintColor": [0.21, 0, 0.71],
			"lastUpdated": "2015-03-28T16:14:56",
			"name": "IRIDIUM 37",
			"orbitVisible": false,
			"stdMag": 5.5,
			"tle1": "1 24968U 97056D   15086.93449235  .00000195  00000-0  62551-4 0  9993",
			"tle2": "2 24968  86.3934 298.3785 0002004  88.7639 271.3786 14.34219524916110",
			"visible": true
		},
		"24969": 
		{
			"comms": [],
			"groups": ["communications", "iridium"],
			"hintColor": [0.21, 0, 0.71],
			"lastUpdated": "2015-03-28T16:14:56",
			"name": "IRIDIUM 34",
			"orbitVisible": false,
			"stdMag": 6,
			"tle1": "1 24969U 97056E   15086.88374105  .00000195  00000-0  62745-4 0  9996",
			"tle2": "2 24969  86.3932 298.3377 0002046  88.0166 272.1264 14.34216066916107",
			"visible": true
		},
		"25004": 
		{
			"comms": [],
			"groups": ["geostationary"],
			"lastUpdated": "2015-03-27T21:19:56",
			"name": "ECHOSTAR 3",
			"orbitVisible": false,
			"stdMag": 4,
			"tle1": "1 25004U 97059A   15085.49305804 -.00000310  00000-0  10000-3 0  9992",
			"tle2": "2 25004   0.4860  81.7731 0001382 312.2620 265.2432  1.00269744 64027",
			"visible": false
		},
		"25030": 
		{
			"comms": [
			{
				"description": "L1",
				"frequency": 1575.42,
				"modulation": "QPSK"
			}, 
			{
				"description": "L2",
				"frequency": 1227.6,
				"modulation": "BPSK"
			}],
			"groups": ["gps"],
			"lastUpdated": "2015-03-28T16:14:56",
			"name": "GPS BIIA-28 (PRN 08)",
			"orbitVisible": false,
			"tle1": "1 25030U 97067A   15086.46354419 -.00000065  00000-0  00000+0 0  9996",
			"tle2": "2 25030  56.9801 320.3431 0145713 207.1157 349.6382  2.00574782127438",
			"visible": false
		},
		"25039": 
		{
			"comms": [],
			"groups": ["communications", "iridium"],
			"hintColor": [0.21, 0, 0.71],
			"lastUpdated": "2015-03-28T16:14:56",
			"name": "IRIDIUM 43",
			"orbitVisible": false,
			"stdMag": 5.5,
			"tle1": "1 25039U 97069A   15086.94131148  .00000661  00000-0  22887-3 0  9994",
			"tle2": "2 25039  86.4026   1.4677 0002053  77.6042 282.5383 14.34221619909897",
			"visible": true
		},
		"25040": 
		{
			"comms": [],
			"groups": ["communications", "iridium"],
			"hintColor": [0.21, 0, 0.71],
			"lastUpdated": "2015-03-28T16:14:56",
			"name": "IRIDIUM 41",
			"orbitVisible": false,
			"stdMag": 5.5,
			"tle1": "1 25040U 97069B   15086.87839410  .00000618  00000-0  21370-3 0  9993",
			"tle2": "2 25040  86.4010   1.4700 0002368  84.8970 343.1956 14.34220245909881",
			"visible": true
		},
		"25041": 
		{
			"comms": [],
			"groups": ["communications", "iridium"],
			"hintColor": [0.21, 0, 0.71],
			"lastUpdated": "2015-03-28T16:14:56",
			"name": "IRIDIUM 40",
			"orbitVisible": false,
			"stdMag": 6,
			"tle1": "1 25041U 97069C   15086.82081701  .00000459  00000-0  15689-3 0  9990",
			"tle2": "2 25041  86.4018   1.7339 0001421  52.8478 307.2847 14.34222853909896",
			"visible": true
		},
		"25042": 
		{
			"comms": [],
			"groups": ["communications", "iridium"],
			"hintColor": [0.21, 0, 0.71],
			"lastUpdated": "2015-03-28T16:14:56",
			"name": "IRIDIUM 39",
			"orbitVisible": false,
			"stdMag": 6,
			"tle1": "1 25042U 97069D   15086.82717177  .00000643  00000-0  22265-3 0  9997",
			"tle2": "2 25042  86.4036   1.7324 0002344  80.5590 279.5871 14.34217639909871",
			"visible": true
		},
		"25043": 
		{
			"comms": [],
			"groups": ["communications", "iridium"],
			"hintColor": [0.21, 0, 0.71],
			"lastUpdated": "2015-03-28T16:14:56",
			"name": "IRIDIUM 38",
			"orbitVisible": false,
			"stdMag": 5.5,
			"tle1": "1 25043U 97069E   15086.83932392  .00000507  00000-0  16849-3 0  9997",
			"tle2": "2 25043  86.4012 359.6041 0003191  76.5654 347.7910 14.35760956910166",
			"visible": true
		},
		"25067": 
		{
			"comms": [],
			"groups": ["geostationary"],
			"lastUpdated": "2015-03-28T16:14:56",
			"name": "JCSAT-1B",
			"orbitVisible": false,
			"tle1": "1 25067U 97075A   15086.66350979 -.00000229  00000-0  00000+0 0  9996",
			"tle2": "2 25067   4.0891  64.3243 0003339 278.6406 230.6425  1.00271302 63453",
			"visible": false
		},
		"25071": 
		{
			"comms": [],
			"groups": ["geostationary"],
			"lastUpdated": "2015-03-28T16:14:56",
			"name": "ASTRA 1G",
			"orbitVisible": false,
			"tle1": "1 25071U 97076A   15086.81109685  .00000022  00000-0  00000+0 0  9995",
			"tle2": "2 25071   0.6748  79.0622 0003449 278.2758 179.3807  1.00273667 63430",
			"visible": false
		},
		"25077": 
		{
			"comms": [],
			"groups": ["communications", "iridium"],
			"hintColor": [0.21, 0, 0.71],
			"lastUpdated": "2015-03-28T16:14:56",
			"name": "IRIDIUM 42",
			"orbitVisible": false,
			"stdMag": 5.5,
			"tle1": "1 25077U 97077A   15086.80425343  .00000313  00000-0  10428-3 0  9995",
			"tle2": "2 25077  86.4014   1.5512 0002268  84.2194 275.9260 14.34350235905731",
			"visible": true
		},
		"25078": 
		{
			"comms": [],
			"groups": ["communications", "iridium"],
			"hintColor": [0.21, 0, 0.71],
			"lastUpdated": "2015-03-28T16:14:56",
			"name": "IRIDIUM 44",
			"orbitVisible": false,
			"stdMag": 5,
			"tle1": "1 25078U 97077B   15086.82415727  .00000489  00000-0  15588-3 0  9999",
			"tle2": "2 25078  86.4011 353.1019 0003751  73.4075 351.0859 14.37816964906890",
			"visible": true
		},
		"25104": 
		{
			"comms": [],
			"groups": ["communications", "iridium"],
			"hintColor": [0.21, 0, 0.71],
			"lastUpdated": "2015-03-28T16:14:56",
			"name": "IRIDIUM 45",
			"orbitVisible": false,
			"stdMag": 5.5,
			"tle1": "1 25104U 97082A   15086.95642931  .00000026  00000-0  24496-5 0  9995",
			"tle2": "2 25104  87.0221 260.8335 0002333  94.4429 265.7034 14.34222333903954",
			"visible": true
		},
		"25105": 
		{
			"comms": [],
			"groups": ["communications", "iridium"],
			"hintColor": [0.21, 0, 0.71],
			"lastUpdated": "2015-03-28T16:14:56",
			"name": "IRIDIUM 24",
			"orbitVisible": false,
			"stdMag": 5.5,
			"tle1": "1 25105U 97082B   15086.87770774  .00000712  00000-0  22175-3 0  9996",
			"tle2": "2 25105  86.3955 218.3471 0013288 132.9439 339.8230 14.39549707905988",
			"visible": true
		},
		"25106": 
		{
			"comms": [],
			"groups": ["communications", "iridium"],
			"hintColor": [0.21, 0, 0.71],
			"lastUpdated": "2015-03-28T16:14:56",
			"name": "IRIDIUM 47",
			"orbitVisible": false,
			"stdMag": 5,
			"tle1": "1 25106U 97082C   15086.93666331  .00000363  00000-0  12246-3 0  9997",
			"tle2": "2 25106  86.3953 234.8250 0002182  99.2179  12.9437 14.34215319903948",
			"visible": true
		},
		"25108": 
		{
			"comms": [],
			"groups": ["communications", "iridium"],
			"hintColor": [0.21, 0, 0.71],
			"lastUpdated": "2015-03-28T16:14:56",
			"name": "IRIDIUM 49",
			"orbitVisible": false,
			"stdMag": 6,
			"tle1": "1 25108U 97082E   15086.88742953  .00000444  00000-0  15134-3 0  9997",
			"tle2": "2 25108  86.3957 234.9268 0002194  97.6047  55.1051 14.34222253903949",
			"visible": true
		},
		"25152": 
		{
			"comms": [],
			"groups": ["geostationary"],
			"lastUpdated": "2015-03-27T21:19:56",
			"name": "BRASILSAT B3",
			"orbitVisible": false,
			"stdMag": 5,
			"tle1": "1 25152U 98006A   15085.49469825 -.00000197  00000-0  00000+0 0  9991",
			"tle2": "2 25152   2.4643  73.0475 0002558 276.8305 279.7808  1.00269705 62822",
			"visible": false
		}
	},
	"shortName": "satellite orbital data"
}